CCSDS_OMM_VERS = 2.0
CREATION_DATE  = 
ORIGINATOR     = 

OBJECT_NAME    = STARLINK-35665
OBJECT_ID      = 2025-257L
CENTER_NAME    = EARTH
REF_FRAME      = TEME
TIME_SYSTEM    = UTC
MEAN_ELEMENT_THEORY = SGP/SGP4

EPOCH          = 2025-12-02T20:00:03.000384
MEAN_MOTION    = 15.49299848
ECCENTRICITY   = .0001263
INCLINATION    = 53.1584
RA_OF_ASC_NODE = 311.1117
ARG_OF_PERICENTER = 97.2634
MEAN_ANOMALY   = 314.0565

EPHEMERIS_TYPE = 0
CLASSIFICATION_TYPE = U
NORAD_CAT_ID   = 66390
ELEMENT_SET_NO = 999
REV_AT_EPOCH   = 500
BSTAR          = -.36122E-3
MEAN_MOTION_DOT = -.20479E-3
MEAN_MOTION_DDOT = 0

CCSDS_OMM_VERS = 2.0
CREATION_DATE  = 
ORIGINATOR     = 

OBJECT_NAME    = STARLINK-35656
OBJECT_ID      = 2025-257M
CENTER_NAME    = EARTH
REF_FRAME      = TEME
TIME_SYSTEM    = UTC
MEAN_ELEMENT_THEORY = SGP/SGP4

EPOCH          = 2025-12-02T20:00:03.000384
MEAN_MOTION    = 15.39546722
ECCENTRICITY   = .0001438
INCLINATION    = 53.1590
RA_OF_ASC_NODE = 311.0595
ARG_OF_PERICENTER = 76.9492
MEAN_ANOMALY   = 355.3448

EPHEMERIS_TYPE = 0
CLASSIFICATION_TYPE = U
NORAD_CAT_ID   = 66391
ELEMENT_SET_NO = 999
REV_AT_EPOCH   = 500
BSTAR          = .22159E-2
MEAN_MOTION_DOT = .8906E-3
MEAN_MOTION_DDOT = 0

CCSDS_OMM_VERS = 2.0
CREATION_DATE  = 
ORIGINATOR     = 

OBJECT_NAME    = STARLINK-35671
OBJECT_ID      = 2025-257N
CENTER_NAME    = EARTH
REF_FRAME      = TEME
TIME_SYSTEM    = UTC
MEAN_ELEMENT_THEORY = SGP/SGP4

EPOCH          = 2025-12-02T20:00:03.000384
MEAN_MOTION    = 15.48040971
ECCENTRICITY   = .0000868
INCLINATION    = 53.1587
RA_OF_ASC_NODE = 311.1773
ARG_OF_PERICENTER = 107.1397
MEAN_ANOMALY   = 272.8623

EPHEMERIS_TYPE = 0
CLASSIFICATION_TYPE = U
NORAD_CAT_ID   = 66392
ELEMENT_SET_NO = 999
REV_AT_EPOCH   = 490
BSTAR          = -.42977E-1
MEAN_MOTION_DOT = -.2036803E-1
MEAN_MOTION_DDOT = 0

CCSDS_OMM_VERS = 2.0
CREATION_DATE  = 
ORIGINATOR     = 

OBJECT_NAME    = STARLINK-35652
OBJECT_ID      = 2025-257P
CENTER_NAME    = EARTH
REF_FRAME      = TEME
TIME_SYSTEM    = UTC
MEAN_ELEMENT_THEORY = SGP/SGP4

EPOCH          = 2025-12-02T20:00:03.000384
MEAN_MOTION    = 15.49293163
ECCENTRICITY   = .0001508
INCLINATION    = 53.1584
RA_OF_ASC_NODE = 311.1798
ARG_OF_PERICENTER = 107.8182
MEAN_ANOMALY   = 270.9074

EPHEMERIS_TYPE = 0
CLASSIFICATION_TYPE = U
NORAD_CAT_ID   = 66393
ELEMENT_SET_NO = 999
REV_AT_EPOCH   = 490
BSTAR          = -.10022E-3
MEAN_MOTION_DOT = -.6015E-4
MEAN_MOTION_DDOT = 0

CCSDS_OMM_VERS = 2.0
CREATION_DATE  = 
ORIGINATOR     = 

OBJECT_NAME    = STARLINK-35672
OBJECT_ID      = 2025-257Q
CENTER_NAME    = EARTH
REF_FRAME      = TEME
TIME_SYSTEM    = UTC
MEAN_ELEMENT_THEORY = SGP/SGP4

EPOCH          = 2025-12-02T20:00:03.000384
MEAN_MOTION    = 15.49294530
ECCENTRICITY   = .0001411
INCLINATION    = 53.1585
RA_OF_ASC_NODE = 311.1712
ARG_OF_PERICENTER = 98.2892
MEAN_ANOMALY   = 284.2723

EPHEMERIS_TYPE = 0
CLASSIFICATION_TYPE = U
NORAD_CAT_ID   = 66394
ELEMENT_SET_NO = 999
REV_AT_EPOCH   = 490
BSTAR          = -.12365E-3
MEAN_MOTION_DOT = -.7316E-4
MEAN_MOTION_DDOT = 0

CCSDS_OMM_VERS = 2.0
CREATION_DATE  = 
ORIGINATOR     = 

OBJECT_NAME    = STARLINK-35681
OBJECT_ID      = 2025-257R
CENTER_NAME    = EARTH
REF_FRAME      = TEME
TIME_SYSTEM    = UTC
MEAN_ELEMENT_THEORY = SGP/SGP4

EPOCH          = 2025-12-02T20:00:03.000384
MEAN_MOTION    = 15.49295971
ECCENTRICITY   = .0001373
INCLINATION    = 53.1584
RA_OF_ASC_NODE = 311.1679
ARG_OF_PERICENTER = 103.4526
MEAN_ANOMALY   = 281.0269

EPHEMERIS_TYPE = 0
CLASSIFICATION_TYPE = U
NORAD_CAT_ID   = 66395
ELEMENT_SET_NO = 999
REV_AT_EPOCH   = 474
BSTAR          = -.2172E-3
MEAN_MOTION_DOT = -.12503E-3
MEAN_MOTION_DDOT = 0

CCSDS_OMM_VERS = 2.0
CREATION_DATE  = 
ORIGINATOR     = 

OBJECT_NAME    = STARLINK-35669
OBJECT_ID      = 2025-257S
CENTER_NAME    = EARTH
REF_FRAME      = TEME
TIME_SYSTEM    = UTC
MEAN_ELEMENT_THEORY = SGP/SGP4

EPOCH          = 2025-12-02T20:00:03.000384
MEAN_MOTION    = 15.49306659
ECCENTRICITY   = .0001336
INCLINATION    = 53.1584
RA_OF_ASC_NODE = 311.1630
ARG_OF_PERICENTER = 105.3146
MEAN_ANOMALY   = 281.0800

EPHEMERIS_TYPE = 0
CLASSIFICATION_TYPE = U
NORAD_CAT_ID   = 66396
ELEMENT_SET_NO = 999
REV_AT_EPOCH   = 490
BSTAR          = -.56937E-3
MEAN_MOTION_DOT = -.31982E-3
MEAN_MOTION_DDOT = 0

CCSDS_OMM_VERS = 2.0
CREATION_DATE  = 
ORIGINATOR     = 

OBJECT_NAME    = STARLINK-35510
OBJECT_ID      = 2025-257T
CENTER_NAME    = EARTH
REF_FRAME      = TEME
TIME_SYSTEM    = UTC
MEAN_ELEMENT_THEORY = SGP/SGP4

EPOCH          = 2025-12-02T20:00:03.000384
MEAN_MOTION    = 15.49295182
ECCENTRICITY   = .0001242
INCLINATION    = 53.1584
RA_OF_ASC_NODE = 311.1595
ARG_OF_PERICENTER = 98.5403
MEAN_ANOMALY   = 289.7741

EPHEMERIS_TYPE = 0
CLASSIFICATION_TYPE = U
NORAD_CAT_ID   = 66397
ELEMENT_SET_NO = 999
REV_AT_EPOCH   = 490
BSTAR          = -.13214E-3
MEAN_MOTION_DOT = -.7787E-4
MEAN_MOTION_DDOT = 0

CCSDS_OMM_VERS = 2.0
CREATION_DATE  = 
ORIGINATOR     = 

OBJECT_NAME    = STARLINK-35642
OBJECT_ID      = 2025-257U
CENTER_NAME    = EARTH
REF_FRAME      = TEME
TIME_SYSTEM    = UTC
MEAN_ELEMENT_THEORY = SGP/SGP4

EPOCH          = 2025-12-02T20:00:03.000384
MEAN_MOTION    = 15.49291915
ECCENTRICITY   = .000123
INCLINATION    = 53.1584
RA_OF_ASC_NODE = 311.1553
ARG_OF_PERICENTER = 101.1368
MEAN_ANOMALY   = 289.0923

EPHEMERIS_TYPE = 0
CLASSIFICATION_TYPE = U
NORAD_CAT_ID   = 66398
ELEMENT_SET_NO = 999
REV_AT_EPOCH   = 490
BSTAR          = -.10222E-3
MEAN_MOTION_DOT = -.6125E-4
MEAN_MOTION_DDOT = 0

CCSDS_OMM_VERS = 2.0
CREATION_DATE  = 
ORIGINATOR     = 

OBJECT_NAME    = STARLINK-35657
OBJECT_ID      = 2025-257V
CENTER_NAME    = EARTH
REF_FRAME      = TEME
TIME_SYSTEM    = UTC
MEAN_ELEMENT_THEORY = SGP/SGP4

EPOCH          = 2025-12-02T20:00:03.000384
MEAN_MOTION    = 15.49299777
ECCENTRICITY   = .0001277
INCLINATION    = 53.1584
RA_OF_ASC_NODE = 311.1515
ARG_OF_PERICENTER = 103.3587
MEAN_ANOMALY   = 288.7894

EPHEMERIS_TYPE = 0
CLASSIFICATION_TYPE = U
NORAD_CAT_ID   = 66399
ELEMENT_SET_NO = 999
REV_AT_EPOCH   = 490
BSTAR          = -.34278E-3
MEAN_MOTION_DOT = -.19459E-3
MEAN_MOTION_DDOT = 0

CCSDS_OMM_VERS = 2.0
CREATION_DATE  = 
ORIGINATOR     = 

OBJECT_NAME    = STARLINK-35667
OBJECT_ID      = 2025-257W
CENTER_NAME    = EARTH
REF_FRAME      = TEME
TIME_SYSTEM    = UTC
MEAN_ELEMENT_THEORY = SGP/SGP4

EPOCH          = 2025-12-02T20:00:03.000384
MEAN_MOTION    = 15.49470410
ECCENTRICITY   = .0001927
INCLINATION    = 53.1584
RA_OF_ASC_NODE = 311.1425
ARG_OF_PERICENTER = 103.5249
MEAN_ANOMALY   = 292.6844

EPHEMERIS_TYPE = 0
CLASSIFICATION_TYPE = U
NORAD_CAT_ID   = 66400
ELEMENT_SET_NO = 999
REV_AT_EPOCH   = 490
BSTAR          = .29742E-2
MEAN_MOTION_DOT = .169565E-2
MEAN_MOTION_DDOT = 0

CCSDS_OMM_VERS = 2.0
CREATION_DATE  = 
ORIGINATOR     = 

OBJECT_NAME    = STARLINK-35668
OBJECT_ID      = 2025-257X
CENTER_NAME    = EARTH
REF_FRAME      = TEME
TIME_SYSTEM    = UTC
MEAN_ELEMENT_THEORY = SGP/SGP4

EPOCH          = 2025-12-02T20:00:03.000384
MEAN_MOTION    = 15.49280465
ECCENTRICITY   = .0001133
INCLINATION    = 53.1585
RA_OF_ASC_NODE = 311.1392
ARG_OF_PERICENTER = 98.0614
MEAN_ANOMALY   = 299.8502

EPHEMERIS_TYPE = 0
CLASSIFICATION_TYPE = U
NORAD_CAT_ID   = 66401
ELEMENT_SET_NO = 999
REV_AT_EPOCH   = 490
BSTAR          = .80882E-4
MEAN_MOTION_DOT = .4048E-4
MEAN_MOTION_DDOT = 0

CCSDS_OMM_VERS = 2.0
CREATION_DATE  = 
ORIGINATOR     = 

OBJECT_NAME    = STARLINK-35644
OBJECT_ID      = 2025-257Y
CENTER_NAME    = EARTH
REF_FRAME      = TEME
TIME_SYSTEM    = UTC
MEAN_ELEMENT_THEORY = SGP/SGP4

EPOCH          = 2025-12-02T20:00:03.000384
MEAN_MOTION    = 15.49294723
ECCENTRICITY   = .0001254
INCLINATION    = 53.1584
RA_OF_ASC_NODE = 311.1471
ARG_OF_PERICENTER = 102.4818
MEAN_ANOMALY   = 291.5817

EPHEMERIS_TYPE = 0
CLASSIFICATION_TYPE = U
NORAD_CAT_ID   = 66402
ELEMENT_SET_NO = 999
REV_AT_EPOCH   = 490
BSTAR          = -.23667E-3
MEAN_MOTION_DOT = -.13582E-3
MEAN_MOTION_DDOT = 0

CCSDS_OMM_VERS = 2.0
CREATION_DATE  = 
ORIGINATOR     = 

OBJECT_NAME    = STARLINK-35602
OBJECT_ID      = 2025-257Z
CENTER_NAME    = EARTH
REF_FRAME      = TEME
TIME_SYSTEM    = UTC
MEAN_ELEMENT_THEORY = SGP/SGP4

EPOCH          = 2025-12-02T20:00:03.000384
MEAN_MOTION    = 15.49289257
ECCENTRICITY   = .0001431
INCLINATION    = 53.1584
RA_OF_ASC_NODE = 311.1353
ARG_OF_PERICENTER = 99.3583
MEAN_ANOMALY   = 300.4573

EPHEMERIS_TYPE = 0
CLASSIFICATION_TYPE = U
NORAD_CAT_ID   = 66403
ELEMENT_SET_NO = 999
REV_AT_EPOCH   = 490
BSTAR          = -.79394E-4
MEAN_MOTION_DOT = -.4858E-4
MEAN_MOTION_DDOT = 0

CCSDS_OMM_VERS = 2.0
CREATION_DATE  = 
ORIGINATOR     = 

OBJECT_NAME    = STARLINK-35691
OBJECT_ID      = 2025-257AA
CENTER_NAME    = EARTH
REF_FRAME      = TEME
TIME_SYSTEM    = UTC
MEAN_ELEMENT_THEORY = SGP/SGP4

EPOCH          = 2025-12-02T20:00:03.000384
MEAN_MOTION    = 15.49293098
ECCENTRICITY   = .0001279
INCLINATION    = 53.1584
RA_OF_ASC_NODE = 311.1309
ARG_OF_PERICENTER = 100.6964
MEAN_ANOMALY   = 301.0344

EPHEMERIS_TYPE = 0
CLASSIFICATION_TYPE = U
NORAD_CAT_ID   = 66404
ELEMENT_SET_NO = 999
REV_AT_EPOCH   = 490
BSTAR          = -.17204E-3
MEAN_MOTION_DOT = -.9999E-4
MEAN_MOTION_DDOT = 0

